2024-092D               
1 59776U 24092D   26068.88372108  .00024443  00000+0  76511-3 0  9999
2 59776  97.6418 198.2302 0008340 141.9853 218.1979 15.33078357100518
STARLINK-34813          
1 66195U 25243U   26068.74921589  .00045285  00000+0  15328-2 0  9994
2 66195  53.1603 244.9251 0001066  75.2464 284.8655 15.30179137 20664
